[{"OBJECT_NAME":"OBJECT B","OBJECT_ID":"2024-205B","EPOCH":"2026-03-09T23:46:05.115936","MEAN_MOTION":15.28158697,"ECCENTRICITY":0.00105957,"INCLINATION":97.4192,"RA_OF_ASC_NODE":146.9311,"ARG_OF_PERICENTER":34.0947,"MEAN_ANOMALY":326.0972,"EPHEMERIS_TYPE":0,"CLASSIFICATION_TYPE":"U","NORAD_CAT_ID":61895,"ELEMENT_SET_NO":999,"REV_AT_EPOCH":7352,"BSTAR":0.00054154807,"MEAN_MOTION_DOT":0.00014827,"MEAN_MOTION_DDOT":0},{"OBJECT_NAME":"STARLINK-35461","OBJECT_ID":"2025-236C","EPOCH":"2026-03-09T08:05:49.974144","MEAN_MOTION":15.30221657,"ECCENTRICITY":0.00010049,"INCLINATION":53.1584,"RA_OF_ASC_NODE":105.2978,"ARG_OF_PERICENTER":134.7805,"MEAN_ANOMALY":225.3277,"EPHEMERIS_TYPE":0,"CLASSIFICATION_TYPE":"U","NORAD_CAT_ID":66088,"ELEMENT_SET_NO":999,"REV_AT_EPOCH":2283,"BSTAR":0.0009985486,"MEAN_MOTION_DOT":0.00029352,"MEAN_MOTION_DDOT":0}]
